[{"OBJECT_NAME":"STARLINK-1704","OBJECT_ID":"2021-012F","EPOCH":"2026-03-09T08:31:59.662560","MEAN_MOTION":15.43808127,"ECCENTRICITY":0.00011238,"INCLINATION":53.0526,"RA_OF_ASC_NODE":64.3372,"ARG_OF_PERICENTER":164.7307,"MEAN_ANOMALY":195.3732,"EPHEMERIS_TYPE":0,"CLASSIFICATION_TYPE":"U","NORAD_CAT_ID":47625,"ELEMENT_SET_NO":999,"REV_AT_EPOCH":28005,"BSTAR":0.0010933867,"MEAN_MOTION_DOT":0.00050206,"MEAN_MOTION_DDOT":0},{"OBJECT_NAME":"IRIDIUM 45","OBJECT_ID":"1997-082A","EPOCH":"2026-03-09T19:43:04.689120","MEAN_MOTION":15.36676082,"ECCENTRICITY":0.00899413,"INCLINATION":86.3479,"RA_OF_ASC_NODE":277.5722,"ARG_OF_PERICENTER":47.6509,"MEAN_ANOMALY":313.2314,"EPHEMERIS_TYPE":0,"CLASSIFICATION_TYPE":"U","NORAD_CAT_ID":25104,"ELEMENT_SET_NO":999,"REV_AT_EPOCH":49262,"BSTAR":0.00064625537,"MEAN_MOTION_DOT":0.00026618,"MEAN_MOTION_DDOT":0}]
